GLOBALSTAR M068         
1 32266U 07048D   25097.89104839 -.00000020  00000+0  46746-3 0  9995
2 32266  51.9868 156.5432 0000647 356.2732 176.3449 12.62819988808968
GLOBALSTAR M079         
1 37188U 10054A   25097.16981730 -.00000078  00000+0  14109-3 0  9998
2 37188  52.0068 355.9744 0000887  93.4701  63.1396 12.62272643667488
GLOBALSTAR M074         
1 37189U 10054B   25097.95641824 -.00000064  00000+0  22196-3 0  9993
2 37189  52.0047 352.9150 0000560  86.4901 284.8920 12.62273593668195
GLOBALSTAR M076         
1 37190U 10054C   25097.91833856 -.00000083  00000+0  11506-3 0  9993
2 37190  52.0057 353.1916 0000667 105.5765 335.3478 12.62260484668263
GLOBALSTAR M077         
1 37191U 10054D   25097.91704009 -.00000066  00000+0  21255-3 0  9994
2 37191  52.0081 310.0360 0000803  95.1983  37.9434 12.62273035668278
GLOBALSTAR M075         
1 37192U 10054E   25097.55561594 -.00000078  00000+0  14361-3 0  9998
2 37192  51.9969  36.5906 0000479  73.3755  97.6202 12.62263065667459
GLOBALSTAR M073         
1 37193U 10054F   25097.83814427 -.00000057  00000+0  25856-3 0  9994
2 37193  52.0067 309.5025 0000826 101.6257 272.0713 12.62270184668956
GLOBALSTAR M083         
1 37739U 11033A   25097.79958535 -.00000059  00000+0  25215-3 0  9993
2 37739  51.9850 258.4440 0000902  99.8339  39.5993 12.62262514637968
GLOBALSTAR M088         
1 37740U 11033B   25097.93869433 -.00000090  00000+0  79290-4 0  9997
2 37740  51.9718 163.5699 0000447 112.8085  59.8923 12.62265119633523
GLOBALSTAR M091         
1 37741U 11033C   25097.79335933 -.00000088  00000+0  85933-4 0  9993
2 37741  51.9976 127.4425 0000522  85.7616  85.3699 12.62266839634297
GLOBALSTAR M085         
1 37742U 11033D   25097.27036362 -.00000086  00000+0  97835-4 0  9993
2 37742  51.9858  80.1329 0000547  73.5630 300.0034 12.62267083634745
GLOBALSTAR M081         
1 37743U 11033E   25097.72743788 -.00000086  00000+0  97697-4 0  9997
2 37743  51.9951  81.4846 0000493  95.7239  75.8160 12.62262581634946
GLOBALSTAR M089         
1 37744U 11033F   25097.90327687 -.00000088  00000+0  86527-4 0  9996
2 37744  51.9955  35.1901 0000312  89.3115 342.0379 12.62268274635814
GLOBALSTAR M084         
1 38040U 11080A   25097.93768524 -.00000083  00000+0  11672-3 0  9993
2 38040  52.0001 262.3389 0000578 126.0608  41.3330 12.62264655613790
GLOBALSTAR M080         
1 38041U 11080B   25097.90046057 -.00000068  00000+0  19995-3 0  9990
2 38041  52.0053 264.0348 0000846 137.7856 340.2227 12.62291699613912
GLOBALSTAR M082         
1 38042U 11080C   25097.84773716 -.00000100  00000+0  18701-4 0  9995
2 38042  52.0069 219.6321 0000835  84.1448  94.6483 12.62264929614615
GLOBALSTAR M092         
1 38043U 11080D   25097.97257465 -.00000056  00000+0  26543-3 0  9990
2 38043  52.0091 309.6264 0000720  89.9232  56.9325 12.62262292613081
GLOBALSTAR M090         
1 38044U 11080E   25097.86801596 -.00000098  00000+0  32982-4 0  9990
2 38044  51.9881 213.4697 0000744 104.6359  45.9648 12.62268900614775
GLOBALSTAR M086         
1 38045U 11080F   25097.73724044 -.00000101  00000+0  14847-4 0  9994
2 38045  51.9893 214.4134 0001425 144.4358  12.0213 12.62269002614669
GLOBALSTAR M097         
1 39072U 13005A   25097.80860106 -.00000093  00000+0  60609-4 0  9999
2 39072  52.0023 128.6714 0000535 112.1183 247.9740 12.62271609561926
GLOBALSTAR M093         
1 39073U 13005B   25097.78189322 -.00000082  00000+0  11879-3 0  9993
2 39073  51.9787 122.1657 0000487 107.0158 253.0762 12.62263554561874
GLOBALSTAR M094         
1 39074U 13005C   25097.86126361 -.00000099  00000+0  24239-4 0  9990
2 39074  51.9981  36.2348 0000787  87.2620 272.8337 12.62269464563492
GLOBALSTAR M096         
1 39075U 13005D   25097.95371091 -.00000089  00000+0  81627-4 0  9996
2 39075  52.0062  84.4136 0000625  82.7550 277.3387 12.62270025562420
GLOBALSTAR M078         
1 39076U 13005E   25097.92684587 -.00000010  00000+0  52508-3 0  9990
2 39076  51.9862 169.1013 0001026  51.6659 308.4299 12.62260775561049
GLOBALSTAR M095         
1 39077U 13005F   25097.87433090 -.00000094  00000+0  55179-4 0  9996
2 39077  51.9787 166.4947 0000837  86.2184 273.8778 12.62268720560895
GLOBALSTAR M087         
1 52888U 22064A   25097.90497322 -.00000062  00000+0  23222-3 0  9996
2 52888  51.9798 307.8057 0000945  87.8604 272.2371 12.62270585136162
